HULIANWANG DIGUI-122    
1 67062U 25295D   25355.46424635  .00000044  00000+0  85481-4 0  9995
2 67062  50.0054 335.3982 0013164 284.0254  75.9196 14.25756317  1368
HULIANWANG DIGUI-123    
1 67063U 25295E   25355.53345008  .00000038  00000+0  82620-4 0  9995
2 67063  50.0060 335.1000 0012477 283.4462  76.5062 14.25889184  1374
HULIANWANG DIGUI-124    
1 67064U 25295F   25355.53304486 -.00000645  00000+0 -20163-3 0  9990
2 67064  50.0035 335.0839 0012098 278.0655  81.8887 14.25949632  1378
HULIANWANG DIGUI-125    
1 67065U 25295G   25355.46293280  .00000030  00000+0  79035-4 0  9991
2 67065  50.0011 335.3780 0012268 283.9385  76.0164 14.25954731  1364
HULIANWANG DIGUI-126    
1 67066U 25295H   25355.81233498  .00000012  00000+0  71485-4 0  9997
2 67066  50.0013 333.8916 0011434 282.3076  77.6558 14.26097849  1414
HULIANWANG DIGUI-127    
1 67067U 25295J   25355.81137456 -.00000822  00000+0 -27402-3 0  9995
2 67067  50.0053 333.8944 0010863 286.1065  73.8653 14.26250459  1417
CZ-12 R/B               
1 67068U 25295K   25355.43303055 -.00000148  00000+0  62753-5 0  9994
2 67068  49.9943 334.5653 0056876 167.0593 193.1802 14.41128985  1366
XIWANG-5 02             
1 67069U 25296A   25355.52524567  .00009641  00000+0  48913-3 0  9995
2 67069  41.3525  51.4607 0014493  88.2506 271.9975 15.16841551  1292
DEAR-5                  
1 67070U 25296B   25355.65609836  .00003847  00000+0  20115-3 0  9990
2 67070  41.3552  50.7055 0016093  90.6198 269.6467 15.16890278  1307
KZ-11 R/B               
1 67071U 25296C   25355.61968821  .06983354  68406-5  48108-3 0  9997
2 67071  41.3166  53.3722 0523493  15.5777 346.0497 15.25020376  1278
ELECTRON R/B            
1 67072U 25297A   25355.86654804  .03838119  21705-5  14118-2 0  9998
2 67072  97.4604 144.0763 0146572 199.7141 159.8440 16.03909627  1236
RAISE-4                 
1 67073U 25297B   25355.39638820  .00003233  00000+0  21859-3 0  9995
2 67073  97.4855 142.7124 0011409 288.7486  71.2503 15.07192134  1093
