CCSDS_OMM_VERS = 2.0
CREATION_DATE  = 
ORIGINATOR     = 

OBJECT_NAME    = HULIANWANG DIGUI-122
OBJECT_ID      = 2025-295D
CENTER_NAME    = EARTH
REF_FRAME      = TEME
TIME_SYSTEM    = UTC
MEAN_ELEMENT_THEORY = SGP/SGP4

EPOCH          = 2025-12-21T11:08:30.884640
MEAN_MOTION    = 14.25756317
ECCENTRICITY   = .00131646
INCLINATION    = 50.0054
RA_OF_ASC_NODE = 335.3982
ARG_OF_PERICENTER = 284.0254
MEAN_ANOMALY   = 75.9196

EPHEMERIS_TYPE = 0
CLASSIFICATION_TYPE = U
NORAD_CAT_ID   = 67062
ELEMENT_SET_NO = 999
REV_AT_EPOCH   = 136
BSTAR          = .85481235E-4
MEAN_MOTION_DOT = .44E-6
MEAN_MOTION_DDOT = 0

CCSDS_OMM_VERS = 2.0
CREATION_DATE  = 
ORIGINATOR     = 

OBJECT_NAME    = HULIANWANG DIGUI-123
OBJECT_ID      = 2025-295E
CENTER_NAME    = EARTH
REF_FRAME      = TEME
TIME_SYSTEM    = UTC
MEAN_ELEMENT_THEORY = SGP/SGP4

EPOCH          = 2025-12-21T12:48:10.086912
MEAN_MOTION    = 14.25889184
ECCENTRICITY   = .0012477
INCLINATION    = 50.0060
RA_OF_ASC_NODE = 335.1000
ARG_OF_PERICENTER = 283.4462
MEAN_ANOMALY   = 76.5062

EPHEMERIS_TYPE = 0
CLASSIFICATION_TYPE = U
NORAD_CAT_ID   = 67063
ELEMENT_SET_NO = 999
REV_AT_EPOCH   = 137
BSTAR          = .8262E-4
MEAN_MOTION_DOT = .38E-6
MEAN_MOTION_DDOT = 0

CCSDS_OMM_VERS = 2.0
CREATION_DATE  = 
ORIGINATOR     = 

OBJECT_NAME    = HULIANWANG DIGUI-124
OBJECT_ID      = 2025-295F
CENTER_NAME    = EARTH
REF_FRAME      = TEME
TIME_SYSTEM    = UTC
MEAN_ELEMENT_THEORY = SGP/SGP4

EPOCH          = 2025-12-21T12:47:35.075904
MEAN_MOTION    = 14.25949632
ECCENTRICITY   = .0012098
INCLINATION    = 50.0035
RA_OF_ASC_NODE = 335.0839
ARG_OF_PERICENTER = 278.0655
MEAN_ANOMALY   = 81.8887

EPHEMERIS_TYPE = 0
CLASSIFICATION_TYPE = U
NORAD_CAT_ID   = 67064
ELEMENT_SET_NO = 999
REV_AT_EPOCH   = 137
BSTAR          = -.20163E-3
MEAN_MOTION_DOT = -.645E-5
MEAN_MOTION_DDOT = 0

CCSDS_OMM_VERS = 2.0
CREATION_DATE  = 
ORIGINATOR     = 

OBJECT_NAME    = HULIANWANG DIGUI-125
OBJECT_ID      = 2025-295G
CENTER_NAME    = EARTH
REF_FRAME      = TEME
TIME_SYSTEM    = UTC
MEAN_ELEMENT_THEORY = SGP/SGP4

EPOCH          = 2025-12-21T11:06:37.393920
MEAN_MOTION    = 14.25954731
ECCENTRICITY   = .00122684
INCLINATION    = 50.0011
RA_OF_ASC_NODE = 335.3780
ARG_OF_PERICENTER = 283.9385
MEAN_ANOMALY   = 76.0164

EPHEMERIS_TYPE = 0
CLASSIFICATION_TYPE = U
NORAD_CAT_ID   = 67065
ELEMENT_SET_NO = 999
REV_AT_EPOCH   = 136
BSTAR          = .79035453E-4
MEAN_MOTION_DOT = .3E-6
MEAN_MOTION_DDOT = 0

CCSDS_OMM_VERS = 2.0
CREATION_DATE  = 
ORIGINATOR     = 

OBJECT_NAME    = HULIANWANG DIGUI-126
OBJECT_ID      = 2025-295H
CENTER_NAME    = EARTH
REF_FRAME      = TEME
TIME_SYSTEM    = UTC
MEAN_ELEMENT_THEORY = SGP/SGP4

EPOCH          = 2025-12-21T19:29:45.742272
MEAN_MOTION    = 14.26097849
ECCENTRICITY   = .0011434
INCLINATION    = 50.0013
RA_OF_ASC_NODE = 333.8916
ARG_OF_PERICENTER = 282.3076
MEAN_ANOMALY   = 77.6558

EPHEMERIS_TYPE = 0
CLASSIFICATION_TYPE = U
NORAD_CAT_ID   = 67066
ELEMENT_SET_NO = 999
REV_AT_EPOCH   = 141
BSTAR          = .71485E-4
MEAN_MOTION_DOT = .12E-6
MEAN_MOTION_DDOT = 0

CCSDS_OMM_VERS = 2.0
CREATION_DATE  = 
ORIGINATOR     = 

OBJECT_NAME    = HULIANWANG DIGUI-127
OBJECT_ID      = 2025-295J
CENTER_NAME    = EARTH
REF_FRAME      = TEME
TIME_SYSTEM    = UTC
MEAN_ELEMENT_THEORY = SGP/SGP4

EPOCH          = 2025-12-21T19:28:22.761984
MEAN_MOTION    = 14.26250459
ECCENTRICITY   = .0010863
INCLINATION    = 50.0053
RA_OF_ASC_NODE = 333.8944
ARG_OF_PERICENTER = 286.1065
MEAN_ANOMALY   = 73.8653

EPHEMERIS_TYPE = 0
CLASSIFICATION_TYPE = U
NORAD_CAT_ID   = 67067
ELEMENT_SET_NO = 999
REV_AT_EPOCH   = 141
BSTAR          = -.27402E-3
MEAN_MOTION_DOT = -.822E-5
MEAN_MOTION_DDOT = 0

CCSDS_OMM_VERS = 2.0
CREATION_DATE  = 
ORIGINATOR     = 

OBJECT_NAME    = CZ-12 R/B
OBJECT_ID      = 2025-295K
CENTER_NAME    = EARTH
REF_FRAME      = TEME
TIME_SYSTEM    = UTC
MEAN_ELEMENT_THEORY = SGP/SGP4

EPOCH          = 2025-12-21T10:23:33.839520
MEAN_MOTION    = 14.41128985
ECCENTRICITY   = .00568766
INCLINATION    = 49.9943
RA_OF_ASC_NODE = 334.5653
ARG_OF_PERICENTER = 167.0593
MEAN_ANOMALY   = 193.1802

EPHEMERIS_TYPE = 0
CLASSIFICATION_TYPE = U
NORAD_CAT_ID   = 67068
ELEMENT_SET_NO = 999
REV_AT_EPOCH   = 136
BSTAR          = .6275251E-5
MEAN_MOTION_DOT = -.148E-5
MEAN_MOTION_DDOT = 0

CCSDS_OMM_VERS = 2.0
CREATION_DATE  = 
ORIGINATOR     = 

OBJECT_NAME    = XIWANG-5 02
OBJECT_ID      = 2025-296A
CENTER_NAME    = EARTH
REF_FRAME      = TEME
TIME_SYSTEM    = UTC
MEAN_ELEMENT_THEORY = SGP/SGP4

EPOCH          = 2025-12-21T12:36:21.225888
MEAN_MOTION    = 15.16841551
ECCENTRICITY   = .0014493
INCLINATION    = 41.3525
RA_OF_ASC_NODE = 51.4607
ARG_OF_PERICENTER = 88.2506
MEAN_ANOMALY   = 271.9975

EPHEMERIS_TYPE = 0
CLASSIFICATION_TYPE = U
NORAD_CAT_ID   = 67069
ELEMENT_SET_NO = 999
REV_AT_EPOCH   = 129
BSTAR          = .48913E-3
MEAN_MOTION_DOT = .9641E-4
MEAN_MOTION_DDOT = 0

CCSDS_OMM_VERS = 2.0
CREATION_DATE  = 
ORIGINATOR     = 

OBJECT_NAME    = DEAR-5
OBJECT_ID      = 2025-296B
CENTER_NAME    = EARTH
REF_FRAME      = TEME
TIME_SYSTEM    = UTC
MEAN_ELEMENT_THEORY = SGP/SGP4

EPOCH          = 2025-12-21T15:44:46.898304
MEAN_MOTION    = 15.16890278
ECCENTRICITY   = .0016093
INCLINATION    = 41.3552
RA_OF_ASC_NODE = 50.7055
ARG_OF_PERICENTER = 90.6198
MEAN_ANOMALY   = 269.6467

EPHEMERIS_TYPE = 0
CLASSIFICATION_TYPE = U
NORAD_CAT_ID   = 67070
ELEMENT_SET_NO = 999
REV_AT_EPOCH   = 130
BSTAR          = .20115E-3
MEAN_MOTION_DOT = .3847E-4
MEAN_MOTION_DDOT = 0

CCSDS_OMM_VERS = 2.0
CREATION_DATE  = 
ORIGINATOR     = 

OBJECT_NAME    = KZ-11 R/B
OBJECT_ID      = 2025-296C
CENTER_NAME    = EARTH
REF_FRAME      = TEME
TIME_SYSTEM    = UTC
MEAN_ELEMENT_THEORY = SGP/SGP4

EPOCH          = 2025-12-21T14:52:21.061344
MEAN_MOTION    = 15.25020376
ECCENTRICITY   = .0523493
INCLINATION    = 41.3166
RA_OF_ASC_NODE = 53.3722
ARG_OF_PERICENTER = 15.5777
MEAN_ANOMALY   = 346.0497

EPHEMERIS_TYPE = 0
CLASSIFICATION_TYPE = U
NORAD_CAT_ID   = 67071
ELEMENT_SET_NO = 999
REV_AT_EPOCH   = 127
BSTAR          = .48108E-3
MEAN_MOTION_DOT = .6983354E-1
MEAN_MOTION_DDOT = .68406E-5

CCSDS_OMM_VERS = 2.0
CREATION_DATE  = 
ORIGINATOR     = 

OBJECT_NAME    = ELECTRON R/B
OBJECT_ID      = 2025-297A
CENTER_NAME    = EARTH
REF_FRAME      = TEME
TIME_SYSTEM    = UTC
MEAN_ELEMENT_THEORY = SGP/SGP4

EPOCH          = 2025-12-21T20:47:49.750656
MEAN_MOTION    = 16.03909627
ECCENTRICITY   = .0146572
INCLINATION    = 97.4604
RA_OF_ASC_NODE = 144.0763
ARG_OF_PERICENTER = 199.7141
MEAN_ANOMALY   = 159.8440

EPHEMERIS_TYPE = 0
CLASSIFICATION_TYPE = U
NORAD_CAT_ID   = 67072
ELEMENT_SET_NO = 999
REV_AT_EPOCH   = 123
BSTAR          = .14118E-2
MEAN_MOTION_DOT = .3838119E-1
MEAN_MOTION_DDOT = .21705E-5

CCSDS_OMM_VERS = 2.0
CREATION_DATE  = 
ORIGINATOR     = 

OBJECT_NAME    = RAISE-4
OBJECT_ID      = 2025-297B
CENTER_NAME    = EARTH
REF_FRAME      = TEME
TIME_SYSTEM    = UTC
MEAN_ELEMENT_THEORY = SGP/SGP4

EPOCH          = 2025-12-21T09:30:47.940480
MEAN_MOTION    = 15.07192134
ECCENTRICITY   = .00114098
INCLINATION    = 97.4855
RA_OF_ASC_NODE = 142.7124
ARG_OF_PERICENTER = 288.7486
MEAN_ANOMALY   = 71.2503

EPHEMERIS_TYPE = 0
CLASSIFICATION_TYPE = U
NORAD_CAT_ID   = 67073
ELEMENT_SET_NO = 999
REV_AT_EPOCH   = 109
BSTAR          = .21859428E-3
MEAN_MOTION_DOT = .3233E-4
MEAN_MOTION_DDOT = 0

